OBJECT_NAME,OBJECT_ID,EPOCH,MEAN_MOTION,ECCENTRICITY,INCLINATION,RA_OF_ASC_NODE,ARG_OF_PERICENTER,MEAN_ANOMALY,EPHEMERIS_TYPE,CLASSIFICATION_TYPE,NORAD_CAT_ID,ELEMENT_SET_NO,REV_AT_EPOCH,BSTAR,MEAN_MOTION_DOT,MEAN_MOTION_DDOT
CAS500-2 RIDESHARE OBJECT AD,2026-100AD,2026-05-09T04:36:16.555392,15.20099242,.0005559,97.4080,27.7154,140.7746,219.3893,0,U,69007,999,88,.99873E-4,.2089E-4,0
CAS500-2 RIDESHARE OBJECT AE,2026-100AE,2026-05-09T04:05:13.547616,14.91194949,.0002182,97.7384,27.3458,292.7403,67.3585,0,U,69008,999,87,.11809E-3,.1118E-4,0
CAS500-2 RIDESHARE OBJECT AF,2026-100AF,2026-05-09T03:05:36.877056,15.19387846,.0006806,97.4075,27.6453,110.5095,249.6871,0,U,69009,999,87,.479E-3,.1008E-3,0
CAS500-2 RIDESHARE OBJECT AG,2026-100AG,2026-05-09T04:35:22.748064,15.20258712,.0006105,97.4074,27.7128,148.3555,211.8048,0,U,69010,999,88,.94501E-4,.1983E-4,0
CAS500-2 RIDESHARE OBJECT AH,2026-100AH,2026-05-09T04:00:01.998720,15.21810421,.0025977,97.7206,27.5018,191.3089,28.1987,0,U,69011,999,130,.47515E-1,.117966E-1,0
CAS500-2 RIDESHARE OBJECT AJ,2026-100AJ,2026-05-09T02:59:49.925760,15.20404716,.0006048,97.4074,27.6494,153.5011,206.6535,0,U,69012,999,87,.14384E-3,.3067E-4,0
CAS500-2 RIDESHARE OBJECT AK,2026-100AK,2026-05-09T02:59:57.873696,15.20271107,.0008328,97.4104,27.6541,145.1401,215.0381,0,U,69013,999,87,.24982E-3,.536E-4,0
CAS500-2 RIDESHARE OBJECT AL,2026-100AL,2026-05-09T02:57:15.770880,15.20873598,.000594,97.4099,27.6604,176.1820,183.9462,0,U,69014,999,87,.13455E-3,.2904E-4,0
CAS500-2 RIDESHARE OBJECT AM,2026-100AM,2026-05-08T11:09:01.450368,15.21056400,.00085608,97.4035,26.9965,168.8813,191.2614,0,U,69015,999,78,.32100201E-3,.7069E-4,0
CAS500-2 RIDESHARE OBJECT AN,2026-100AN,2026-05-09T02:55:51.866112,15.21144854,.0007951,97.4064,27.6511,173.9212,186.2121,0,U,69016,999,87,.26358E-3,.5805E-4,0
PELICAN-7,2026-100AP,2026-05-09T04:00:01.998720,15.20141272,.0005552,97.4081,27.6909,144.3963,79.3089,0,U,69017,999,200,.27656E-2,.60208E-3,0
EDDA-1,2026-100AQ,2026-05-09T04:00:01.998720,15.20082668,.0005645,97.4080,27.6900,141.8783,80.6402,0,U,69018,999,130,.24265E-2,.52673E-3,0
PELICAN-9,2026-100AR,2026-05-09T04:00:01.998720,15.20213859,.0006203,97.4073,27.6875,147.5394,77.6748,0,U,69019,999,130,.24209E-2,.52757E-3,0
CAS500-2 RIDESHARE OBJECT AS,2026-100AS,2026-05-09T04:40:15.117888,15.19405442,.0006032,97.4074,27.7099,109.2877,250.9010,0,U,69020,999,88,.313E-3,.6563E-4,0
CAS500-2 RIDESHARE OBJECT AT,2026-100AT,2026-05-08T11:16:35.663808,15.19491619,.00064901,97.4059,26.9959,116.8844,243.3055,0,U,69021,999,77,.27735202E-3,.5822E-4,0
CAS500-2 RIDESHARE OBJECT AU,2026-100AU,2026-05-09T03:04:30.750816,15.19551195,.0006655,97.4059,27.6414,118.9099,241.2804,0,U,69022,999,87,.17179E-3,.3586E-4,0
CAS500-2 RIDESHARE OBJECT AV,2026-100AV,2026-05-09T04:38:51.785088,15.19655288,.0004725,97.4101,27.7185,116.3560,243.8161,0,U,69023,999,88,.27502E-3,.5799E-4,0
CAS500-2 RIDESHARE OBJECT AW,2026-100AW,2026-05-09T04:00:01.998720,15.19597922,.0004655,97.4106,27.6878,118.1810,94.3234,0,U,69024,999,130,.29337E-2,.62888E-3,0
OBJECT_NAME,OBJECT_ID,EPOCH,MEAN_MOTION,ECCENTRICITY,INCLINATION,RA_OF_ASC_NODE,ARG_OF_PERICENTER,MEAN_ANOMALY,EPHEMERIS_TYPE,CLASSIFICATION_TYPE,NORAD_CAT_ID,ELEMENT_SET_NO,REV_AT_EPOCH,BSTAR,MEAN_MOTION_DOT,MEAN_MOTION_DDOT
METHANESAT,2024-043D,2026-05-09T02:50:30.861600,14.97954695,.0011804,97.8403,259.9857,133.5246,226.6958,0,U,59101,999,11880,.2254E-3,.2601E-4,0
